THEOS                   
1 33396U 08049A   26170.64618095  .00000306  00000+0  16324-3 0  9997
2 33396  98.5564 227.8505 0001201  80.1063 280.0250 14.20134350918316
COSMO-SKYMED 3          
1 33412U 08054A   26170.59996997  .00002884  00000+0  19684-3 0  9991
2 33412  97.8280  29.2098 0013971 257.2662 102.7003 15.06965911957300
YAOGAN-4                
1 33446U 08061A   26170.52829743  .00000762  00000+0  99682-4 0  9993
2 33446  97.9307 104.0213 0015654  65.5289 294.7556 14.83203795946014
GOSAT (IBUKI)           
1 33492U 09002A   26170.25200199  .00000862  00000+0  16052-3 0  9998
2 33492  98.0895 281.3076 0001540  84.9380 275.2001 14.67541949931764
DEIMOS-1                
1 35681U 09041A   26170.56031466  .00000620  00000+0  98724-4 0  9995
2 35681  97.7407 327.6845 0001762 128.1780 231.9589 14.75240373907231
DUBAISAT-1              
1 35682U 09041B   26170.32752143  .00000577  00000+0  93001-4 0  9996
2 35682  98.0055 303.5617 0011594  67.6524 292.5912 14.75125326905413
OCEANSAT-2              
1 35931U 09051A   26170.63006410 -.00000178  00000+0 -95907-4 0  9993
2 35931  98.2323 157.2379 0015398 228.5944 131.3900 13.99663835879671
WORLDVIEW-2 (WV-2)      
1 35946U 09055A   26170.52972385  .00000080  00000+0  41035-4 0  9997
2 35946  98.4737 243.9470 0003857 200.2111 159.8924 14.37900026875983
SMOS                    
1 36036U 09059A   26170.48288297  .00000171  00000+0  68385-4 0  9997
2 36036  98.4425 357.7841 0001323  88.1500 271.9840 14.39773615873788
YAOGAN-7                
1 36110U 09069A   26170.39056674  .00000360  00000+0  56942-4 0  9999
2 36110  98.0069  56.2440 0025442  34.9411 325.3463 14.78011823889955
TANDEM-X                
1 36605U 10030A   26170.49711645  .00000194  00000+0  12414-4 0  9996
2 36605  97.4451 178.1721 0001891  87.7400 272.4051 15.19151444886990
CARTOSAT-2B             
1 36795U 10035A   26170.57279034  .00001018  00000+0  14591-3 0  9994
2 36795  97.9945 221.1079 0011390 175.9058 184.2248 14.78665577860207
YAOGAN-10               
1 36834U 10038A   26170.64961811  .00001763  00000+0  21122-3 0  9995
2 36834  97.8971 194.0345 0001748  87.6085  16.4400 14.85357142857574
